STARLINK-31009          
1 58530U 23191Y   26068.50689941  .00080329  00000+0  29373-2 0  9998
2 58530  42.9983 104.4335 0002046 225.1892 134.8793 15.27125173125466
HAWK-11B                
1 62379U 24247C   26068.44730104  .00009093  00000+0  32842-3 0  9993
2 62379  45.0161 115.7610 0004690 333.0326  27.0314 15.28847070 67738
